0 SL-8 R/B
1 07009U 73109B   13283.43369361  .00000074  00000-0  59706-4 0  4399
2 07009 082.9518 221.6872 0020646 048.8682 090.3010 13.76727977998121
0 SL-8 R/B
1 07009U 73109B   13286.18959773  .00000079  00000-0  64978-4 0  4411
2 07009 082.9523 219.6423 0020534 041.5292 068.7969 13.76728167998505
0 SL-8 R/B
1 07009U 73109B   13287.42974826  .00000090  00000-0  75760-4 0  4420
2 07009 082.9525 218.7221 0020446 038.1416 095.1744 13.76728259998670
0 SL-8 R/B
1 07009U 73109B   13288.79466625  .00000109  00000-0  95116-4 0  4433
2 07009 082.9526 217.7095 0020343 034.3874 019.9459 13.76728345998865
0 SL-8 R/B
1 07009U 73109B   13289.88616308  .00000112  00000-0  98147-4 0  4441
2 07009 082.9525 216.8997 0020266 031.4252 029.5545 13.76728519999011
0 SL-8 R/B
1 07009U 73109B   13290.90436353  .00000114  00000-0  99952-4 0  4454
2 07009 082.9525 216.1444 0020186 028.5834 035.9751 13.76728697999157
0 SL-8 R/B
1 07009U 73109B   13292.15354194  .00000112  00000-0  98269-4 0  4464
2 07009 082.9525 215.2178 0020120 025.2057 107.0643 13.76728775999327
0 SL-8 R/B
1 07009U 73109B   13293.17174693  .00000101  00000-0  87248-4 0  4475
2 07009 082.9524 214.4625 0020051 022.4273 113.4443 13.76728946999460
0 SL-8 R/B
1 07009U 73109B   13294.18385580  .00000095  00000-0  81224-4 0  4487
2 07009 082.9524 213.7117 0020001 019.6837 089.5936 13.76729300999608
0 SL-8 R/B
1 07009U 73109B   13295.20093112  .00000096  00000-0  81732-4 0  4494
2 07009 082.9524 212.9572 0019930 016.9001 090.3853 13.76729566999743
